{"type": "FeatureCollection", "features": [ {"type": "Feature", "properties": {"norad_id": 32260, "name": "GPS BIIRM-4 (PRN 15)", "group": "gnss", "lat": 20.14379007340289, "lon": 103.63613957456178, "alt_km": 19955.817259688658, "timestamp": "2025-12-02T19:35:50.798249+00:00", "meta": {"OBJECT_NAME": "GPS BIIRM-4 (PRN 15)", "OBJECT_ID": "2007-047A", "EPOCH": "2025-12-02T06:48:08.706240", "MEAN_MOTION": 2.00564846, "ECCENTRICITY": 0.0164395, "INCLINATION": 53.948, "RA_OF_ASC_NODE": 88.1904, "ARG_OF_PERICENTER": 85.1225, "MEAN_ANOMALY": 276.7305, "EPHEMERIS_TYPE": 0, "CLASSIFICATION_TYPE": "U", "NORAD_CAT_ID": 32260, "ELEMENT_SET_NO": 999, "REV_AT_EPOCH": 13286, "BSTAR": 0, "MEAN_MOTION_DOT": -1.3e-07, "MEAN_MOTION_DDOT": 0}, "tle": {"line1": "1 32260U 07047A   25336.28343410 -.00000013  00000+0  00000+0 0  9998", "line2": "2 32260  53.9480  88.1904 0164395  85.1225 276.7305  2.00564846132860"}}, "geometry": {"type": "Point", "coordinates": [103.63613957456178, 20.14379007340289]}}, {"type": "Feature", "properties": {"norad_id": 32275, "name": "COSMOS 2433 (720)", "group": "gnss", "lat": 34.98098446177477, "lon": -19.022345297186927, "alt_km": 19137.645188497954, "timestamp": "2025-12-02T19:35:50.798261+00:00", "meta": {"OBJECT_NAME": "COSMOS 2433 (720)", "OBJECT_ID": "2007-052A", "EPOCH": "2025-12-02T07:06:53.876160", "MEAN_MOTION": 2.13103912, "ECCENTRICITY": 0.0005574, "INCLINATION": 65.6888, "RA_OF_ASC_NODE": 322.5567, "ARG_OF_PERICENTER": 252.1881, "MEAN_ANOMALY": 107.7615, "EPHEMERIS_TYPE": 0, "CLASSIFICATION_TYPE": "U", "NORAD_CAT_ID": 32275, "ELEMENT_SET_NO": 999, "REV_AT_EPOCH": 14086, "BSTAR": 0, "MEAN_MOTION_DOT": -3.2e-07, "MEAN_MOTION_DDOT": 0}, "tle": {"line1": "1 32275U 07052A   25336.29645690 -.00000032  00000+0  00000+0 0  9997", "line2": "2 32275  65.6888 322.5567 0005574 252.1881 107.7615  2.13103912140868"}}, "geometry": {"type": "Point", "coordinates": [-19.022345297186927, 34.98098446177477]}}, {"type": "Feature", "properties": {"norad_id": 32276, "name": "COSMOS 2432 (719)", "group": "gnss", "lat": -14.988085869593322, "lon": -44.29035565188917, "alt_km": 19108.0833232559, "timestamp": "2025-12-02T19:35:50.798273+00:00", "meta": {"OBJECT_NAME": "COSMOS 2432 (719)", "OBJECT_ID": "2007-052B", "EPOCH": "2025-12-01T01:47:57.960960", "MEAN_MOTION": 2.13103067, "ECCENTRICITY": 0.00112256, "INCLINATION": 65.7054, "RA_OF_ASC_NODE": 322.7218, "ARG_OF_PERICENTER": 311.1678, "MEAN_ANOMALY": 136.2023, "EPHEMERIS_TYPE": 0, "CLASSIFICATION_TYPE": "U", "NORAD_CAT_ID": 32276, "ELEMENT_SET_NO": 999, "REV_AT_EPOCH": 14086, "BSTAR": 0, "MEAN_MOTION_DOT": -2.4e-07, "MEAN_MOTION_DDOT": 0}, "tle": {"line1": "1 32276U 07052B   25335.07497640 -.00000024  00000+0  00000+0 0  9994", "line2": "2 32276  65.7054 322.7218 0011225 311.1678 136.2023  2.13103067140861"}}, "geometry": {"type": "Point", "coordinates": [-44.29035565188917, -14.988085869593322]}}, {"type": "Feature", "properties": {"norad_id": 32384, "name": "GPS BIIRM-5 (PRN 29)", "group": "gnss", "lat": 19.80657254189956, "lon": 87.52723141140032, "alt_km": 20093.841504171032, "timestamp": "2025-12-02T19:35:50.798285+00:00", "meta": {"OBJECT_NAME": "GPS BIIRM-5 (PRN 29)", "OBJECT_ID": "2007-062A", "EPOCH": "2025-11-30T05:30:32.984352", "MEAN_MOTION": 2.00576538, "ECCENTRICITY": 0.00321991, "INCLINATION": 55.1933, "RA_OF_ASC_NODE": 282.1479, "ARG_OF_PERICENTER": 162.9414, "MEAN_ANOMALY": 284.6025, "EPHEMERIS_TYPE": 0, "CLASSIFICATION_TYPE": "U", "NORAD_CAT_ID": 32384, "ELEMENT_SET_NO": 999, "REV_AT_EPOCH": 13152, "BSTAR": 0, "MEAN_MOTION_DOT": -4e-07, "MEAN_MOTION_DDOT": 0}, "tle": {"line1": "1 32384U 07062A   25334.22954843 -.00000040  00000+0  00000+0 0  9992", "line2": "2 32384  55.1933 282.1479 0032199 162.9414 284.6025  2.00576538131527"}}, "geometry": {"type": "Point", "coordinates": [87.52723141140032, 19.80657254189956]}}, {"type": "Feature", "properties": {"norad_id": 32393, "name": "COSMOS 2434 (721)", "group": "gnss", "lat": -58.1426478402698, "lon": 147.81410658867966, "alt_km": 19144.85154875138, "timestamp": "2025-12-02T19:35:50.798297+00:00", "meta": {"OBJECT_NAME": "COSMOS 2434 (721)", "OBJECT_ID": "2007-065A", "EPOCH": "2025-12-01T06:30:38.524608", "MEAN_MOTION": 2.13101181, "ECCENTRICITY": 0.00043375, "INCLINATION": 64.3147, "RA_OF_ASC_NODE": 198.5905, "ARG_OF_PERICENTER": 70.7489, "MEAN_ANOMALY": 113.3938, "EPHEMERIS_TYPE": 0, "CLASSIFICATION_TYPE": "U", "NORAD_CAT_ID": 32393, "ELEMENT_SET_NO": 999, "REV_AT_EPOCH": 13955, "BSTAR": 0, "MEAN_MOTION_DOT": 1.02e-06, "MEAN_MOTION_DDOT": 0}, "tle": {"line1": "1 32393U 07065A   25335.27127922  .00000102  00000+0  00000+0 0  9999", "line2": "2 32393  64.3147 198.5905 0004337  70.7489 113.3938  2.13101181139555"}}, "geometry": {"type": "Point", "coordinates": [147.81410658867966, -58.1426478402698]}}, {"type": "Feature", "properties": {"norad_id": 32395, "name": "COSMOS 2436 (723)", "group": "gnss", "lat": 53.300266210904, "lon": -121.21336500149549, "alt_km": 19097.458850105828, "timestamp": "2025-12-02T19:35:50.798308+00:00", "meta": {"OBJECT_NAME": "COSMOS 2436 (723)", "OBJECT_ID": "2007-065C", "EPOCH": "2025-12-01T01:03:25.836192", "MEAN_MOTION": 2.13099978, "ECCENTRICITY": 0.00177119, "INCLINATION": 64.3233, "RA_OF_ASC_NODE": 198.6683, "ARG_OF_PERICENTER": 8.6583, "MEAN_ANOMALY": 134.2889, "EPHEMERIS_TYPE": 0, "CLASSIFICATION_TYPE": "U", "NORAD_CAT_ID": 32395, "ELEMENT_SET_NO": 999, "REV_AT_EPOCH": 13950, "BSTAR": 0, "MEAN_MOTION_DOT": 1e-06, "MEAN_MOTION_DDOT": 0}, "tle": {"line1": "1 32395U 07065C   25335.04404903  .00000100  00000+0  00000+0 0  9991", "line2": "2 32395  64.3233 198.6683 0017711   8.6583 134.2889  2.13099978139504"}}, "geometry": {"type": "Point", "coordinates": [-121.21336500149549, 53.300266210904]}}, {"type": "Feature", "properties": {"norad_id": 32711, "name": "GPS BIIRM-6 (PRN 07)", "group": "gnss", "lat": 53.18139309146895, "lon": -129.5243328224471, "alt_km": 20694.092124253377, "timestamp": "2025-12-02T19:35:50.798320+00:00", "meta": {"OBJECT_NAME": "GPS BIIRM-6 (PRN 07)", "OBJECT_ID": "2008-012A", "EPOCH": "2025-12-02T04:53:30.746112", "MEAN_MOTION": 2.00565009, "ECCENTRICITY": 0.0202034, "INCLINATION": 54.4754, "RA_OF_ASC_NODE": 157.7935, "ARG_OF_PERICENTER": 244.8334, "MEAN_ANOMALY": 113.1019, "EPHEMERIS_TYPE": 0, "CLASSIFICATION_TYPE": "U", "NORAD_CAT_ID": 32711, "ELEMENT_SET_NO": 999, "REV_AT_EPOCH": 12980, "BSTAR": 0, "MEAN_MOTION_DOT": 1.2e-06, "MEAN_MOTION_DDOT": 0}, "tle": {"line1": "1 32711U 08012A   25336.20382808  .00000120  00000+0  00000+0 0  9996", "line2": "2 32711  54.4754 157.7935 0202034 244.8334 113.1019  2.00565009129804"}}, "geometry": {"type": "Point", "coordinates": [-129.5243328224471, 53.18139309146895]}}, {"type": "Feature", "properties": {"norad_id": 35752, "name": "GPS BIIRM-8 (PRN 05)", "group": "gnss", "lat": 54.67258553081814, "lon": 143.70048583140596, "alt_km": 20044.321879550593, "timestamp": "2025-12-02T19:35:50.798331+00:00", "meta": {"OBJECT_NAME": "GPS BIIRM-8 (PRN 05)", "OBJECT_ID": "2009-043A", "EPOCH": "2025-12-01T04:42:32.815296", "MEAN_MOTION": 2.00566259, "ECCENTRICITY": 0.00521242, "INCLINATION": 56.0822, "RA_OF_ASC_NODE": 35.2386, "ARG_OF_PERICENTER": 82.0997, "MEAN_ANOMALY": 288.3285, "EPHEMERIS_TYPE": 0, "CLASSIFICATION_TYPE": "U", "NORAD_CAT_ID": 35752, "ELEMENT_SET_NO": 999, "REV_AT_EPOCH": 11939, "BSTAR": 0, "MEAN_MOTION_DOT": -6.6e-07, "MEAN_MOTION_DDOT": 0}, "tle": {"line1": "1 35752U 09043A   25335.19621314 -.00000066  00000+0  00000+0 0  9994", "line2": "2 35752  56.0822  35.2386 0052124  82.0997 288.3285  2.00566259119397"}}, "geometry": {"type": "Point", "coordinates": [143.70048583140596, 54.67258553081814]}}, {"type": "Feature", "properties": {"norad_id": 36111, "name": "COSMOS 2456 (730)", "group": "gnss", "lat": 64.71056092872755, "lon": 159.91648227462446, "alt_km": 19128.81648950122, "timestamp": "2025-12-02T19:35:50.798343+00:00", "meta": {"OBJECT_NAME": "COSMOS 2456 (730)", "OBJECT_ID": "2009-070A", "EPOCH": "2025-12-01T00:19:15.904128", "MEAN_MOTION": 2.13103433, "ECCENTRICITY": 0.00027486, "INCLINATION": 64.8936, "RA_OF_ASC_NODE": 77.7389, "ARG_OF_PERICENTER": 298.5027, "MEAN_ANOMALY": 204.7984, "EPHEMERIS_TYPE": 0, "CLASSIFICATION_TYPE": "U", "NORAD_CAT_ID": 36111, "ELEMENT_SET_NO": 999, "REV_AT_EPOCH": 12420, "BSTAR": 0, "MEAN_MOTION_DOT": -1.4e-07, "MEAN_MOTION_DDOT": 0}, "tle": {"line1": "1 36111U 09070A   25335.01337852 -.00000014  00000+0  00000+0 0  9999", "line2": "2 36111  64.8936  77.7389 0002748 298.5027 204.7984  2.13103433124208"}}, "geometry": {"type": "Point", "coordinates": [159.91648227462446, 64.71056092872755]}}, {"type": "Feature", "properties": {"norad_id": 36112, "name": "COSMOS 2457 (733)", "group": "gnss", "lat": -32.14990424379149, "lon": -85.35202806798516, "alt_km": 19128.0012376947, "timestamp": "2025-12-02T19:35:50.798354+00:00", "meta": {"OBJECT_NAME": "COSMOS 2457 (733)", "OBJECT_ID": "2009-070B", "EPOCH": "2025-12-01T04:17:17.576160", "MEAN_MOTION": 2.13100803, "ECCENTRICITY": 0.00049655, "INCLINATION": 64.8788, "RA_OF_ASC_NODE": 77.581, "ARG_OF_PERICENTER": 155.592, "MEAN_ANOMALY": 243.7721, "EPHEMERIS_TYPE": 0, "CLASSIFICATION_TYPE": "U", "NORAD_CAT_ID": 36112, "ELEMENT_SET_NO": 999, "REV_AT_EPOCH": 12421, "BSTAR": 0, "MEAN_MOTION_DOT": -1.5e-07, "MEAN_MOTION_DDOT": 0}, "tle": {"line1": "1 36112U 09070B   25335.17867565 -.00000015  00000+0  00000+0 0  9997", "line2": "2 36112  64.8788  77.5810 0004965 155.5920 243.7721  2.13100803124219"}}, "geometry": {"type": "Point", "coordinates": [-85.35202806798516, -32.14990424379149]}}]}